NORAD_CAT_ID,OBJECT_NAME,OBJECT_TYPE,EPOCH,MEAN_MOTION,ECCENTRICITY,INCLINATION,RA_OF_ASC_NODE,ARG_OF_PERICENTER,MEAN_ANOMALY,BSTAR,MEAN_MOTION_DOT,MEAN_MOTION_DDOT,TLE_LINE0,TLE_LINE1,TLE_LINE2,SEMIMAJOR_AXIS,PERIOD,APOGEE,PERIGEE,DECAYED
53000.0,STARLINK-4194,PAYLOAD,2022-09-06 22:00:00,15.27825605,0.0001714,53.2178,79.8201,41.1154,315.7068,-0.043617,-0.01097947,0.0,0 STARLINK-4194,1 53000U 22076Q   22249.91667824 -.01097947  00000-0 -43617-1 0  9998,2 53000  53.2178  79.8201 0001714  41.1154 315.7068 15.27825605  1307,6860.451,94.252,483.492,481.14,0.0
53000.0,STARLINK-4194,PAYLOAD,2022-09-07 04:00:00,15.27234199,0.0001605,53.2173,78.6617,43.3438,249.014,-0.043132,-0.01068812,0.0,0 STARLINK-4194,1 53000U 22076Q   22250.16667824 -.01068812  00000-0 -43132-1 0  9998,2 53000  53.2173  78.6617 0001605  43.3438 249.0140 15.27234199 10142,6862.222,94.288,485.18800000000016,482.985,0.0
53000.0,STARLINK-4194,PAYLOAD,2022-09-07 14:00:01,15.26282901,0.0001768,53.2176,76.7369,36.4588,27.2975,-0.044225,-0.01064931,0.0,0 STARLINK-4194,1 53000U 22076Q   22250.58334491 -.01064931  00000-0 -44225-1 0  9997,2 53000  53.2176  76.7369 0001768  36.4588  27.2975 15.26282901  1300,6865.073,94.347,488.152,485.724,0.0
53000.0,STARLINK-4194,PAYLOAD,2022-09-07 22:00:00,15.25522412,0.0001882,53.2176,75.2012,35.9652,59.882,-0.045203,-0.01063774,0.0,0 STARLINK-4194,1 53000U 22076Q   22250.91667824 -.01063774  00000-0 -45203-1 0  9994,2 53000  53.2176  75.2012 0001882  35.9652  59.8820 15.25522412  1305,6867.354,94.394,490.512,487.927,0.0
53000.0,STARLINK-4194,PAYLOAD,2022-09-08 06:00:00,15.24763234,0.0001893,53.2175,73.664,36.4197,90.607,-0.046262,-0.01063991,0.0,0 STARLINK-4194,1 53000U 22076Q   22251.25001157 -.01063991  00000-0 -46262-1 0  9990,2 53000  53.2175  73.6640 0001893  36.4197  90.6070 15.24763234 10314,6869.6330000000025,94.441,492.799,490.198,0.0
53000.0,STARLINK-4194,PAYLOAD,2022-09-08 14:00:01,15.24003265,0.0002041,53.2177,72.1302,35.0787,122.2142,-0.047279,-0.01062936,0.0,0 STARLINK-4194,1 53000U 22076Q   22251.58334491 -.01062936  00000-0 -47279-1 0  9993,2 53000  53.2177  72.1302 0002041  35.0787 122.2142 15.24003265  1303,6871.917,94.488,495.185,492.38,0.0
53000.0,STARLINK-4194,PAYLOAD,2022-09-08 22:00:00,15.23217822,0.0001955999999999,53.2176,70.6014,41.4795,145.1752,-0.046459,-0.01023597,0.0,0 STARLINK-4194,1 53000U 22076Q   22251.91667824 -.01023597  00000-0 -46459-1 0  9998,2 53000  53.2176  70.6014 0001956  41.4795 145.1752 15.23217822  1305,6874.279,94.537,497.489,494.8,0.0
53000.0,STARLINK-4194,PAYLOAD,2022-09-09 06:00:00,15.22521476,0.0001908,53.2175,69.0692,39.631,175.4373,-0.051999,-0.01128237,0.0,0 STARLINK-4194,1 53000U 22076Q   22252.25001157 -.01128237  00000-0 -51999-1 0  9999,2 53000  53.2175  69.0692 0001908  39.6310 175.4373 15.22521476 10461,6876.375,94.58,499.552,496.92800000000005,0.0
53000.0,STARLINK-4194,PAYLOAD,2022-09-09 14:00:01,15.21724745,0.0001847,53.2176,67.5398,40.5407,202.0741,-0.050573,-0.01062343,0.0,0 STARLINK-4194,1 53000U 22076Q   22252.58334491 -.01062343  00000-0 -50573-1 0  9997,2 53000  53.2176  67.5398 0001847  40.5407 202.0741 15.21724745  1300,6878.775,94.629,501.911,499.37,0.0
53000.0,STARLINK-4194,PAYLOAD,2022-09-09 20:00:01,15.21155726,0.0002044,53.2175,66.3959,37.3105,135.3504,-0.051489,-0.01063484,0.0,0 STARLINK-4194,1 53000U 22076Q   22252.83334491 -.01063484  00000-0 -51489-1 0  9999,2 53000  53.2175  66.3959 0002044  37.3105 135.3504 15.21155726 10557,6880.49,94.665,503.762,500.949,0.0
53000.0,STARLINK-4194,PAYLOAD,2022-09-09 22:00:00,15.20963321,0.0001872,53.2175,66.0145,37.5367,231.6933,-0.051539,-0.01058869,0.0,0 STARLINK-4194,1 53000U 22076Q   22252.91667824 -.01058869  00000-0 -51539-1 0  9994,2 53000  53.2175  66.0145 0001872  37.5367 231.6933 15.20963321  1307,6881.071,94.677,504.224,501.647,0.0
53000.0,STARLINK-4194,PAYLOAD,2022-09-10 14:00:01,15.1944698,0.0001594,53.2176,62.965,44.0838,275.6389,-0.054132,-0.01063273,0.0,0 STARLINK-4194,1 53000U 22076Q   22253.58334491 -.01063273  00000-0 -54132-1 0  9996,2 53000  53.2176  62.9650 0001594  44.0838 275.6389 15.19446980 10668,6885.648,94.771,508.61,506.415,0.0
53000.0,STARLINK-4194,PAYLOAD,2022-09-10 22:00:00,15.18685504,0.0001511,53.2174,61.445,46.2743,297.3257,-0.05515,-0.0105978,0.0,0 STARLINK-4194,1 53000U 22076Q   22253.91667824 -.01059780  00000-0 -55150-1 0  9991,2 53000  53.2174  61.4450 0001511  46.2743 297.3257 15.18685504  1308,6887.949000000001,94.819,510.855,508.774,0.0
53000.0,STARLINK-4194,PAYLOAD,2022-09-11 14:00:01,15.17168916,0.0001819,53.2176,58.4064,34.4904,354.1264,-0.057886,-0.01077731,0.0,0 STARLINK-4194,1 53000U 22076Q   22254.58334491 -.01077731  00000-0 -57886-1 0  9990,2 53000  53.2176  58.4064 0001819  34.4904 354.1264 15.17168916 10814,6892.5390000000025,94.914,515.658,513.15,0.0
53000.0,STARLINK-4194,PAYLOAD,2022-09-11 22:00:00,15.16406441,0.0001916999999999,53.2173,56.8916,32.1047,17.6518,-0.058855,-0.01072435,0.0,0 STARLINK-4194,1 53000U 22076Q   22254.91667824 -.01072435  00000-0 -58855-1 0  9999,2 53000  53.2173  56.8916 0001917  32.1047  17.6518 15.16406441  1305,6894.849,94.961,518.036,515.3919999999998,0.0
53000.0,STARLINK-4194,PAYLOAD,2022-09-12 12:00:00,15.1507917,0.0001674,53.2175,54.24100000000001,39.6822,314.8724,-0.061297,-0.0107509,0.0,0 STARLINK-4194,1 53000U 22076Q   22255.50001157 -.01075090  00000-0 -61297-1 0  9990,2 53000  53.2175  54.2410 0001674  39.6822 314.8724 15.15079170 10957,6898.875,95.045,521.895,519.585,0.0
53000.0,STARLINK-4194,PAYLOAD,2022-09-12 14:00:01,15.14889743,0.0001867,53.2174,53.8637,37.5453,51.7521,-0.0617309999999999,-0.01076783,0.0,0 STARLINK-4194,1 53000U 22076Q   22255.58334491 -.01076783  00000-0 -61731-1 0  9991,2 53000  53.2174  53.8637 0001867  37.5453  51.7521 15.14889743  1308,6899.45,95.056,522.6030000000002,520.0269999999998,0.0
53000.0,STARLINK-4194,PAYLOAD,2022-09-12 22:00:00,15.14159963,0.0001855999999999,53.217,52.3556,35.3271,72.3511,-0.065171,-0.01110724,0.0,0 STARLINK-4194,1 53000U 22076Q   22255.91667824 -.01110724  00000-0 -65171-1 0  9993,2 53000  53.2170  52.3556 0001856  35.3271  72.3511 15.14159963  1302,6901.667,95.102,524.813,522.251,0.0
53000.0,STARLINK-4194,PAYLOAD,2022-09-13 06:00:00,15.1336851,0.0001817,53.2173,50.8432,40.4371,84.7518,-0.06421,-0.01073053,0.0,0 STARLINK-4194,1 53000U 22076Q   22256.25001157 -.01073053  00000-0 -64210-1 0  9998,2 53000  53.2173  50.8432 0001817  40.4371  84.7518 15.13368510 11074,6904.073,95.152,527.193,524.684,0.0
53000.0,STARLINK-4194,PAYLOAD,2022-09-13 14:00:01,15.126099900000002,0.0001889,53.2174,49.3368,41.6323,100.1318,-0.0657,-0.0107464,0.0,0 STARLINK-4194,1 53000U 22076Q   22256.58334491 -.01074640  00000-0 -65700-1 0  9992,2 53000  53.2174  49.3368 0001889  41.6323 100.1318 15.12609990  1300,6906.380999999999,95.2,529.5509999999998,526.941,0.0
53000.0,STARLINK-4194,PAYLOAD,2022-09-13 22:00:00,15.1184846,0.0001969,53.2172,47.8323,38.2675,119.16,-0.066841,-0.01070538,0.0,0 STARLINK-4194,1 53000U 22076Q   22256.91667824 -.01070538  00000-0 -66841-1 0  9997,2 53000  53.2172  47.8323 0001969  38.2675 119.1600 15.11848460  1303,6908.7,95.248,531.925,529.205,0.0
53000.0,STARLINK-4194,PAYLOAD,2022-09-14 06:00:00,15.11089786,0.000175,53.2173,46.3268,46.871,125.3082,-0.068405,-0.0107242999999999,0.0,0 STARLINK-4194,1 53000U 22076Q   22257.25001157 -.01072430  00000-0 -68405-1 0  9997,2 53000  53.2173  46.3268 0001750  46.8710 125.3082 15.11089786 11222,6911.012,95.295,534.087,531.668,0.0
53000.0,STARLINK-4194,PAYLOAD,2022-09-14 14:00:01,15.10354262,0.0001745,53.2176,44.8272,52.3655,133.6391,-0.072245,-0.01106894,0.0,0 STARLINK-4194,1 53000U 22076Q   22257.58334491 -.01106894  00000-0 -72245-1 0  9992,2 53000  53.2176  44.8272 0001745  52.3655 133.6391 15.10354262  1303,6913.255999999999,95.342,536.327,533.914,0.0
53000.0,STARLINK-4194,PAYLOAD,2022-09-14 22:00:00,15.09461518,0.0001817,53.217,43.3285,47.0544,151.8954,-0.044639,-0.00675685,0.0,0 STARLINK-4194,1 53000U 22076Q   22257.91667824 -.00675685  00000-0 -44639-1 0  9992,2 53000  53.2170  43.3285 0001817  47.0544 151.8954 15.09461518  1301,6915.981,95.398,539.1030000000002,536.59,0.0
53000.0,STARLINK-4194,PAYLOAD,2022-09-15 06:00:00,15.08918399,0.0001843,53.2179,41.8333,47.8211,163.1392,-0.0049513,-0.000784,0.0,0 STARLINK-4194,1 53000U 22076Q   22258.25001157 -.00078400  00000-0 -49513-2 0  9990,2 53000  53.2179  41.8333 0001843  47.8211 163.1392 15.08918399 11378,6917.641,95.433,540.781,538.231,0.0
53000.0,STARLINK-4194,PAYLOAD,2022-09-15 14:00:01,15.08893279,0.0001855,53.2184,40.3401,41.8608,180.7585,-0.0039938,-0.00063384,0.0,0 STARLINK-4194,1 53000U 22076Q   22258.58334491 -.00063384  00000-0 -39938-2 0  9991,2 53000  53.2184  40.3401 0001855  41.8608 180.7585 15.08893279  1301,6917.718000000003,95.434,540.866,538.299,0.0
53000.0,STARLINK-4194,PAYLOAD,2022-09-15 22:00:00,15.08861708,0.000198,53.2183,38.8443,37.9002,196.3481,-0.0012887999999999,-0.00020753,0.0,0 STARLINK-4194,1 53000U 22076Q   22258.91667824 -.00020753  00000-0 -12888-2 0  9995,2 53000  53.2183  38.8443 0001980  37.9002 196.3481 15.08861708  1301,6917.814,95.436,541.049,538.309,0.0
53000.0,STARLINK-4194,PAYLOAD,2022-09-16 02:00:01,15.08878944,0.000193,53.2185,38.0951,41.2311,18.8227,-0.0055262,-0.00087268,0.0,0 STARLINK-4194,1 53000U 22076Q   22259.08334491 -.00087268  00000-0 -55262-2 0  9992,2 53000  53.2185  38.0951 0001930  41.2311  18.8227 15.08878944 11492,6917.761,95.435,540.961,538.2909999999998,0.0
53000.0,STARLINK-4194,PAYLOAD,2022-09-16 14:00:01,15.08817126,0.0002078,53.2187,35.8513,46.0634,211.3783,-0.0029543,-0.00046972,0.0,0 STARLINK-4194,1 53000U 22076Q   22259.58334491 -.00046972  00000-0 -29543-2 0  9997,2 53000  53.2187  35.8513 0002078  46.0634 211.3783 15.08817126  1309,6917.95,95.439,541.253,538.378,0.0
